{
    "links": {
        "self": "http://www.neowsapp.com/rest/v1/neo/3761741?api_key=iIulBulltgU6a56xZRHN4H3l9WmuAYTsLGpBGhQ2"
    },
    "id": "3761741",
    "neo_reference_id": "3761741",
    "name": "(2016 UC41)",
    "designation": "2016 UC41",
    "nasa_jpl_url": "http://ssd.jpl.nasa.gov/sbdb.cgi?sstr=3761741",
    "absolute_magnitude_h": 23.9,
    "estimated_diameter": {
        "kilometers": {
            "estimated_diameter_min": 0.04411182,
            "estimated_diameter_max": 0.0986370281
        },
        "meters": {
            "estimated_diameter_min": 44.1118199997,
            "estimated_diameter_max": 98.6370281305
        },
        "miles": {
            "estimated_diameter_min": 0.0274098057,
            "estimated_diameter_max": 0.0612901888
        },
        "feet": {
            "estimated_diameter_min": 144.7238235278,
            "estimated_diameter_max": 323.6123073718
        }
    },
    "is_potentially_hazardous_asteroid": false,
    "close_approach_data": [
        {
            "close_approach_date": "2016-10-30",
            "close_approach_date_full": "2016-Oct-30 22:33",
            "epoch_date_close_approach": 1477866780000,
            "relative_velocity": {
                "kilometers_per_second": "14.7215444993",
                "kilometers_per_hour": "52997.56019744",
                "miles_per_hour": "32930.6228904593"
            },
            "miss_distance": {
                "astronomical": "0.0885309778",
                "lunar": "34.4385503642",
                "kilometers": "13244045.707897286",
                "miles": "8229468.3973671068"
            },
            "orbiting_body": "Earth"
        }
    ],
    "orbital_data": {
        "orbit_id": "5",
        "orbit_determination_date": "2017-04-06 08:22:44",
        "first_observation_date": "2016-10-27",
        "last_observation_date": "2016-11-13",
        "data_arc_in_days": 17,
        "observations_used": 40,
        "orbit_uncertainty": "8",
        "minimum_orbit_intersection": ".0866227",
        "jupiter_tisserand_invariant": "4.513",
        "epoch_osculation": "2457690.5",
        "eccentricity": ".2655919128954685",
        "semi_major_axis": "1.442925994622412",
        "inclination": "26.7307762271777",
        "ascending_node_longitude": "36.70475365393387",
        "orbital_period": "633.0886287008312",
        "perihelion_distance": "1.059696519544049",
        "perihelion_argument": "25.0203856418359",
        "aphelion_distance": "1.826155469700775",
        "perihelion_time": "2457715.047587673001",
        "mean_anomaly": "346.0412410495903",
        "mean_motion": ".5686407616241036",
        "equinox": "J2000",
        "orbit_class": {
            "orbit_class_type": "AMO",
            "orbit_class_description": "Near-Earth asteroid orbits similar to that of 1221 Amor",
            "orbit_class_range": "1.017 AU < q (perihelion) < 1.3 AU"
        }
    },
    "is_sentry_object": false
}